M2 PATHFINDER           
1 45727U 20037E   26193.51583493  .00000888  00000+0  67433-4 0  9996
2 45727  97.8146  25.0339 0013110  70.7385 289.5258 15.04786510329303
NETSAT-4                
1 46504U 20068U   26193.58990884  .00011591  00000+0  25035-3 0  9991
2 46504  97.8604 203.8873 0004454 202.8550 157.2500 15.44697807319694
NETSAT-3                
1 46505U 20068V   26193.55053396  .00011703  00000+0  26275-3 0  9999
2 46505  97.8651 202.0304 0003506 222.8875 137.2098 15.43547770319597
NETSAT-1                
1 46506U 20068W   26193.56002037  .00007541  00000+0  22326-3 0  9995
2 46506  97.8750 196.0670 0002396 279.0913  81.0057 15.35206696319196
NETSAT-2                
1 46507U 20068X   26193.46346907  .00015171  00000+0  30146-3 0  9999
2 46507  97.8611 203.7420 0001783 220.9475 139.1640 15.47081469319644
GREENCUBE (IO-117)      
1 53109U 22080E   26193.24176169 -.00000003  00000+0  00000+0 0  9999
2 53109  70.1417 289.5333 0009038 284.1760  75.7895  6.42583320 93670
SITRO-AIS 5 (KATYS)     
1 57176U 23091L   26193.58080504  .00007530  00000+0  26132-3 0  9993
2 57176  97.5054 257.7293 0010926  21.6054 338.5645 15.30028033168227
SITRO-AIS 6 (CHIRKIN)   
1 57192U 23091AC  26193.61912500  .00005834  00000+0  22663-3 0  9995
2 57192  97.5061 256.7504 0011459  25.3945 334.7854 15.26407827168169
SITRO-AIS 8 (ANOKHIN)   
1 57193U 23091AD  26193.61786258  .00008261  00000+0  26283-3 0  9994
2 57193  97.5051 259.4611 0009789  17.4346 342.7230 15.32812491168349
SITRO-AIS 7 (FARTUSHNIY)
1 57194U 23091AE  26193.56200053  .00005572  00000+0  21871-3 0  9993
2 57194  97.5057 256.5046 0011413  26.7764 333.4061 15.26082229168148
SITRO-AIS 10 (BURDAEV)  
1 57199U 23091AK  26193.47526977  .00013486  00000+0  34478-3 0  9994
2 57199  97.5076 264.6369 0005089 352.7880   7.3291 15.39559788168656
SITRO-AIS 9 (SHCHUKIN)  
1 57201U 23091AM  26193.57491729  .00012556  00000+0  32659-3 0  9991
2 57201  97.5074 264.4486 0005359 352.6622   7.4544 15.39047910168650
SITRO-AIS 12 (SMIRENNIY)
1 57204U 23091AQ  26193.49570011  .00012696  00000+0  32708-3 0  9997
2 57204  97.5088 264.8507 0004900 345.9883  14.1225 15.39341871168666
SITRO-AIS 11 (SHEFFER)  
1 57208U 23091AU  26193.50199401  .00012709  00000+0  32273-3 0  9995
2 57208  97.5086 265.1199 0004805 345.3801  14.7304 15.39783637168683
SITRO-AIS 25            
1 59066U 24039R   26193.63396948  .00001716  00000+0  13587-3 0  9994
2 59066  95.3894 252.5791 0142597 238.5752 120.1465 14.93633186128528
SITRO-AIS 26            
1 59067U 24039S   26193.63884646  .00001744  00000+0  13870-3 0  9998
2 59067  95.3895 252.4749 0142938 239.1794 119.5301 14.93425293128512
SITRO-AIS 27            
1 59068U 24039T   26193.60191987  .00001546  00000+0  12214-3 0  9996
2 59068  95.3899 252.7331 0141990 237.8502 120.8883 14.93850616128539
SITRO-AIS 28            
1 59071U 24039U   26193.57879830  .00001914  00000+0  15046-3 0  9991
2 59071  95.3898 252.7659 0141906 237.7603 120.9804 14.93883201128533
GRBBETA                 
1 60237U 24128C   26193.37232129  .00002004  00000+0  14651-3 0  9990
2 60237  61.9894 127.8929 0037392 140.0298 220.3558 15.06796996110064
OOV-CUBE (TUBSAT-30)    
1 60240U 24128F   26193.40605557  .00001093  00000+0  95469-4 0  9991
2 60240  61.9937 137.6292 0041488 139.4098 221.0100 15.02866804109903
ROBUSTA-3A (MEDITERRAN*)
1 60243U 24128J   26193.20243966  .00004555  00000+0  27269-3 0  9992
2 60243  61.9861 119.7630 0038345 133.3943 227.0356 15.11959618110209
LASARSAT                
1 62391U 24247Q   26193.22203257  .00022836  00000+0  43384-3 0  9999
2 62391  44.9750 121.3703 0006861 145.2871 214.8468 15.47906721 87198
CROCUBE                 
1 62394U 24247T   26192.99415519  .00027505  00000+0  48357-3 0  9994
2 62394  44.9710 119.5598 0007111 151.4755 208.6527 15.50022679 87199
FORESAIL-1 PRIME        
1 66778U 25276DS  26193.16385043  .00002869  00000+0  14066-3 0  9991
2 66778  97.4195 265.9794 0003123  51.5125 308.6390 15.18922403 34192
KNACKSAT-2              
1 67683U 98067XZ  26193.44423869  .00033729  00000+0  37969-3 0  9991
2 67683  51.6258 167.2182 0008152 318.8485  41.1893 15.62203060 24220
